[{"OBJECT_NAME":"STARLINK-2610","OBJECT_ID":"2021-038Z","EPOCH":"2026-03-09T22:45:55.353312","MEAN_MOTION":15.30187161,"ECCENTRICITY":0.00013679,"INCLINATION":53.159,"RA_OF_ASC_NODE":346.5999,"ARG_OF_PERICENTER":111.1285,"MEAN_ANOMALY":248.9862,"EPHEMERIS_TYPE":0,"CLASSIFICATION_TYPE":"U","NORAD_CAT_ID":48376,"ELEMENT_SET_NO":999,"REV_AT_EPOCH":26726,"BSTAR":0.00048412082,"MEAN_MOTION_DOT":0.00014,"MEAN_MOTION_DDOT":0},{"OBJECT_NAME":"OBJECT K","OBJECT_ID":"2024-092K","EPOCH":"2026-03-09T22:27:09.905184","MEAN_MOTION":15.32834875,"ECCENTRICITY":0.00087198,"INCLINATION":97.6413,"RA_OF_ASC_NODE":198.1023,"ARG_OF_PERICENTER":142.4952,"MEAN_ANOMALY":217.69,"EPHEMERIS_TYPE":0,"CLASSIFICATION_TYPE":"U","NORAD_CAT_ID":59809,"ELEMENT_SET_NO":999,"REV_AT_EPOCH":10001,"BSTAR":0.0007267688,"MEAN_MOTION_DOT":0.00023035,"MEAN_MOTION_DDOT":0}]
